{"spkid": "50843154", "covariance": {"labels": ["e", "q", "tp", "node", "peri", "i"], "data": [["3.032464440509371E-14", "-4.505989037755923E-14", "-1.406502068320779E-12", "-2.973892501590196E-12", "6.935002750669161E-12", "-1.809770290372836E-12"], ["-4.505989037755923E-14", "6.774211538450846E-14", "2.099435542763972E-12", "3.817498396714904E-12", "-9.807391779029982E-12", "2.329344259520286E-12"], ["-1.406502068320779E-12", "2.099435542763972E-12", "7.231238144053516E-11", "1.222522351887607E-10", "-2.999775304570767E-10", "6.525560899620344E-11"], ["-2.973892501590196E-12", "3.817498396714904E-12", "1.222522351887607E-10", "2.597398121622873E-9", "-2.888870229310744E-9", "1.47072507705535E-9"], ["6.935002750669161E-12", "-9.807391779029982E-12", "-2.999775304570767E-10", "-2.888870229310744E-9", "3.721649068980138E-9", "-1.651916590611895E-9"], ["-1.809770290372836E-12", "2.329344259520286E-12", "6.525560899620344E-11", "1.47072507705535E-9", "-1.651916590611895E-9", "8.804626997393128E-10"]], "elements": [{"units": null, "title": "eccentricity", "value": ".7288306016487026", "sigma": 1.74139726671124e-07, "name": "e", "label": "e"}, {"label": "q", "sigma": 2.60273155328221e-07, "name": "q", "units": "au", "value": ".4692234393582125", "title": "perihelion distance"}, {"name": "tp", "sigma": 8.50366870477297e-06, "units": "TDB", "title": "time of perihelion passage", "value": "2458725.420521680349", "label": "tp"}, {"label": "node", "title": "longitude of the ascending node", "value": "267.9454165542286", "units": "deg", "sigma": 5.09646752331737e-05, "name": "om"}, {"units": "deg", "value": "124.1416578157885", "title": "argument of perihelion", "name": "w", "sigma": 6.10053200055547e-05, "label": "peri"}, {"name": "i", "sigma": 2.96725917260241e-05, "title": "inclination", "value": "8.473673562324773", "units": "deg", "label": "i"}], "epoch": "2458683.5"}, "elements": [{"sigma": "1.7398E-7", "name": "e", "units": null, "value": ".7287956245958588", "title": "eccentricity", "label": "e"}, {"label": "a", "sigma": "1.8495E-7", "name": "a", "value": "1.729876063788471", "title": "semi-major axis", "units": "au"}, {"label": "q", "units": "au", "title": "perihelion distance", "value": ".4691499574063267", "sigma": "2.6039E-7", "name": "q"}, {"label": "i", "units": "deg", "title": "inclination; angle with respect to x-y ecliptic plane", "value": "8.476601809333051", "sigma": "2.9691E-5", "name": "i"}, {"label": "node", "value": "267.8783058615617", "title": "longitude of the ascending node", "units": "deg", "name": "om", "sigma": "5.1037E-5"}, {"units": "deg", "title": "argument of perihelion", "value": "124.2007806411071", "sigma": "6.106E-5", "name": "w", "label": "peri"}, {"label": "M", "units": "deg", "title": "mean anomaly", "value": "352.154158927292", "sigma": ".00016998", "name": "ma"}, {"title": "time of perihelion passage", "value": "2461218.611645824938", "units": "TDB", "name": "tp", "sigma": ".0003953", "label": "tp"}, {"label": "period", "name": "per", "sigma": ".00013328", "value": "831.0380539899645", "title": "sidereal orbital period", "units": "d"}, {"label": "n", "value": ".4331931591719232", "title": "mean motion", "units": "deg/d", "sigma": "6.9472E-8", "name": "n"}, {"label": "Q", "sigma": "3.1974E-7", "name": "ad", "units": "au", "title": "aphelion distance", "value": "2.990602170170616"}], "epoch": "2461200.5"}